[{"OBJECT_NAME":"HAWK-C","OBJECT_ID":"2018-099AT","EPOCH":"2026-03-09T16:08:34.251360","MEAN_MOTION":15.26407167,"ECCENTRICITY":0.00403625,"INCLINATION":97.4027,"RA_OF_ASC_NODE":122.6817,"ARG_OF_PERICENTER":277.4052,"MEAN_ANOMALY":82.2601,"EPHEMERIS_TYPE":0,"CLASSIFICATION_TYPE":"U","NORAD_CAT_ID":43799,"ELEMENT_SET_NO":999,"REV_AT_EPOCH":39872,"BSTAR":0.00035662773,"MEAN_MOTION_DOT":9.431e-5,"MEAN_MOTION_DDOT":0},{"OBJECT_NAME":"STARLINK-31484","OBJECT_ID":"2024-036H","EPOCH":"2026-03-09T08:17:51.671616","MEAN_MOTION":15.30188299,"ECCENTRICITY":6.44e-6,"INCLINATION":53.16,"RA_OF_ASC_NODE":79.5068,"ARG_OF_PERICENTER":214.6339,"MEAN_ANOMALY":145.4658,"EPHEMERIS_TYPE":0,"CLASSIFICATION_TYPE":"U","NORAD_CAT_ID":59005,"ELEMENT_SET_NO":999,"REV_AT_EPOCH":11527,"BSTAR":-3.5185123e-5,"MEAN_MOTION_DOT":-1.4e-5,"MEAN_MOTION_DDOT":0}]
